ONEWEB-0228             
1 48780U 21045P   24292.53702645  .00000196  00000+0  48758-3 0  9990
2 48780  87.9122  19.9222 0001998 102.2060 257.9294 13.15551125164560
